CTC2_L_00373016-03
1 81075U 22821UI  26070.40847222  .00000000  00000+0  00000-0 0  9999
2 81075  80.0000 180.0000 0000000   0.0000   0.0000 13.16009679    13
CTC2_L_00373016-04
1 81076U 23341XQ  26070.40847222  .00000000  00000+0  00000-0 0  9998
2 81076  80.0000 180.0000 0000000   0.0000  90.0000 13.16009679    13
CTC2_L_00373017-01
1 81077U 23214HB  26070.40847222  .00000000  00000+0  00000-0 0  9998
2 81077  80.0000 192.0000 0000000   0.0000 192.0000 13.16009679    10
CTC2_L_00373017-02
1 81078U 22158UR  26070.40847222  .00000000  00000+0  00000-0 0  9995
2 81078  80.0000 192.0000 0000000   0.0000 282.0000 13.16009679    11
CTC2_L_00373017-03
1 81079U 24205B   26070.40847222  .00000000  00000+0  00000-0 0  9991
2 81079  80.0000 192.0000 0000000   0.0000  12.0000 13.16009679    13
CTC2_L_00373017-04
1 81080U 23189QX  26070.40847222  .00000000  00000+0  00000-0 0  9993
2 81080  80.0000 192.0000 0000000   0.0000 102.0000 13.16009679    15
CTC2_L_00373018-01
1 81081U 23348MU  26070.40847222  .00000000  00000+0  00000-0 0  9991
2 81081  80.0000 204.0000 0000000   0.0000 204.0000 13.16009679    13
CTC2_L_00373018-02
1 81082U 22442VO  26070.40847222  .00000000  00000+0  00000-0 0  9996
2 81082  80.0000 204.0000 0000000   0.0000 294.0000 13.16009679    13
CTC2_L_00373018-03
1 81083U 22874LD  26070.40847222  .00000000  00000+0  00000-0 0  9996
2 81083  80.0000 204.0000 0000000   0.0000  24.0000 13.16009679    15
CTC2_L_00373018-04
1 81084U 22835UE  26070.40847222  .00000000  00000+0  00000-0 0  9994
2 81084  80.0000 204.0000 0000000   0.0000 114.0000 13.16009679    16
CTC2_L_00373019-01
1 81085U 23312P   26070.40847222  .00000000  00000+0  00000-0 0  9996
2 81085  80.0000 216.0000 0000000   0.0000 216.0000 13.16009679    13
CTC2_L_00373019-02
1 81086U 26393OB  26070.40847222  .00000000  00000+0  00000-0 0  9999
2 81086  80.0000 216.0000 0000000   0.0000 306.0000 13.16009679    14
CTC2_L_00373019-03
1 81087U 24043GP  26070.40847222  .00000000  00000+0  00000-0 0  9990
2 81087  80.0000 216.0000 0000000   0.0000  36.0000 13.16009679    15
CTC2_L_00373019-04
1 81088U 22776TD  26070.40847222  .00000000  00000+0  00000-0 0  9992
2 81088  80.0000 216.0000 0000000   0.0000 126.0000 13.16009679    16
CTC2_L_00373020-01
1 81089U 23104WC  26070.40847222  .00000000  00000+0  00000-0 0  9999
2 81089  80.0000 228.0000 0000000   0.0000 228.0000 13.16009679    13
CTC2_L_00373020-02
1 81090U 24977EP  26070.40847222  .00000000  00000+0  00000-0 0  9990
2 81090  80.0000 228.0000 0000000   0.0000 318.0000 13.16009679    15
CTC2_L_00373020-03
1 81091U 25708JK  26070.40847222  .00000000  00000+0  00000-0 0  9994
2 81091  80.0000 228.0000 0000000   0.0000  48.0000 13.16009679    16
CTC2_L_00373020-04
1 81092U 25013FO  26070.40847222  .00000000  00000+0  00000-0 0  9994
2 81092  80.0000 228.0000 0000000   0.0000 138.0000 13.16009679    17
CTC2_L_00373021-01
1 81093U 24704VV  26070.40847222  .00000000  00000+0  00000-0 0  9991
2 81093  80.0000 240.0000 0000000   0.0000 240.0000 13.16009679    16
CTC2_L_00373021-02
1 81094U 25035JY  26070.40847222  .00000000  00000+0  00000-0 0  9990
2 81094  80.0000 240.0000 0000000   0.0000 330.0000 13.16009679    17
CTC2_L_00373021-03
1 81095U 26353ND  26070.40847222  .00000000  00000+0  00000-0 0  9995
2 81095  80.0000 240.0000 0000000   0.0000  60.0000 13.16009679    18
CTC2_L_00373021-04
1 81096U 26595JB  26070.40847222  .00000000  00000+0  00000-0 0  9994
2 81096  80.0000 240.0000 0000000   0.0000 150.0000 13.16009679    19
CTC2_L_00373022-01
1 81097U 25705ZC  26070.40847222  .00000000  00000+0  00000-0 0  9997
2 81097  80.0000 252.0000 0000000   0.0000 252.0000 13.16009679    16
CTC2_L_00373022-02
1 81098U 23456PB  26070.40847222  .00000000  00000+0  00000-0 0  9999
2 81098  80.0000 252.0000 0000000   0.0000 342.0000 13.16009679    17
CTC2_L_00373022-03
1 81099U 24738DW  26070.40847222  .00000000  00000+0  00000-0 0  9994
2 81099  80.0000 252.0000 0000000   0.0000  72.0000 13.16009679    18
CTC2_L_00373022-04
1 81100U 25321BQ  26070.40847222  .00000000  00000+0  00000-0 0  9996
2 81100  80.0000 252.0000 0000000   0.0000 162.0000 13.16009679    11
CTC2_L_00373023-01
1 81101U 24228YA  26070.40847222  .00000000  00000+0  00000-0 0  9992
2 81101  80.0000 264.0000 0000000   0.0000 264.0000 13.16009679    18
CTC2_L_00373023-02
1 81102U 23126MS  26070.40847222  .00000000  00000+0  00000-0 0  9999
2 81102  80.0000 264.0000 0000000   0.0000 354.0000 13.16009679    19
CTC2_L_00373023-03
1 81103U 25638LY  26070.40847222  .00000000  00000+0  00000-0 0  9990
2 81103  80.0000 264.0000 0000000   0.0000  84.0000 13.16009679    10
CTC2_L_00373023-04
1 81104U 24274CZ  26070.40847222  .00000000  00000+0  00000-0 0  9996
2 81104  80.0000 264.0000 0000000   0.0000 174.0000 13.16009679    11
CTC2_L_00373024-01
1 81105U 23760LF  26070.40847222  .00000000  00000+0  00000-0 0  9996
2 81105  80.0000 276.0000 0000000   0.0000 276.0000 13.16009679    18
CTC2_L_00373024-02
1 81106U 25682ZD  26070.40847222  .00000000  00000+0  00000-0 0  9992
2 81106  80.0000 276.0000 0000000   0.0000   6.0000 13.16009679    10
CTC2_L_00373024-03
1 81107U 26147KG  26070.40847222  .00000000  00000+0  00000-0 0  9990
2 81107  80.0000 276.0000 0000000   0.0000  96.0000 13.16009679    10
CTC2_L_00373024-04
1 81108U 24837UF  26070.40847222  .00000000  00000+0  00000-0 0  9995
2 81108  80.0000 276.0000 0000000   0.0000 186.0000 13.16009679    11
CTC2_L_00373025-01
1 81109U 22156YU  26070.40847222  .00000000  00000+0  00000-0 0  9998
2 81109  80.0000 288.0000 0000000   0.0000 288.0000 13.16009679    18
CTC2_L_00373025-02
1 81110U 24283FT  26070.40847222  .00000000  00000+0  00000-0 0  9993
2 81110  80.0000 288.0000 0000000   0.0000  18.0000 13.16009679    11
CTC2_L_00373025-03
1 81111U 23706SO  26070.40847222  .00000000  00000+0  00000-0 0  9993
2 81111  80.0000 288.0000 0000000   0.0000 108.0000 13.16009679    12
CTC2_L_00373025-04
1 81112U 26756WK  26070.40847222  .00000000  00000+0  00000-0 0  9992
2 81112  80.0000 288.0000 0000000   0.0000 198.0000 13.16009679    12
CTC2_L_00373026-01
1 81113U 26262FI  26070.40847222  .00000000  00000+0  00000-0 0  9995
2 81113  80.0000 300.0000 0000000   0.0000 300.0000 13.16009679    13
CTC2_L_00373026-02
1 81114U 22906GL  26070.40847222  .00000000  00000+0  00000-0 0  9997
2 81114  80.0000 300.0000 0000000   0.0000  30.0000 13.16009679    14
CTC2_L_00373026-03
1 81115U 24747I   26070.40847222  .00000000  00000+0  00000-0 0  9993
2 81115  80.0000 300.0000 0000000   0.0000 120.0000 13.16009679    15
CTC2_L_00373026-04
1 81116U 25356GF  26070.40847222  .00000000  00000+0  00000-0 0  9991
2 81116  80.0000 300.0000 0000000   0.0000 210.0000 13.16009679    16
CTC2_L_00373027-01
1 81117U 25887EJ  26070.40847222  .00000000  00000+0  00000-0 0  9991
2 81117  80.0000 312.0000 0000000   0.0000 312.0000 13.16009679    13
CTC2_L_00373027-02
1 81118U 23392BD  26070.40847222  .00000000  00000+0  00000-0 0  9991
2 81118  80.0000 312.0000 0000000   0.0000  42.0000 13.16009679    14
CTC2_L_00373027-03
1 81119U 22924ZW  26070.40847222  .00000000  00000+0  00000-0 0  9992
2 81119  80.0000 312.0000 0000000   0.0000 132.0000 13.16009679    15
CTC2_L_00373027-04
1 81120U 25152PJ  26070.40847222  .00000000  00000+0  00000-0 0  9990
2 81120  80.0000 312.0000 0000000   0.0000 222.0000 13.16009679    17
CTC2_L_00373028-01
1 81121U 22986HG  26070.40847222  .00000000  00000+0  00000-0 0  9993
2 81121  80.0000 324.0000 0000000   0.0000 324.0000 13.16009679    14
CTC2_L_00373028-02
1 81122U 22978ZB  26070.40847222  .00000000  00000+0  00000-0 0  9995
2 81122  80.0000 324.0000 0000000   0.0000  54.0000 13.16009679    15
CTC2_L_00373028-03
1 81123U 24273PM  26070.40847222  .00000000  00000+0  00000-0 0  9996
2 81123  80.0000 324.0000 0000000   0.0000 144.0000 13.16009679    16
CTC2_L_00373028-04
1 81124U 24867IJ  26070.40847222  .00000000  00000+0  00000-0 0  9996
2 81124  80.0000 324.0000 0000000   0.0000 234.0000 13.16009679    17
CTC2_L_00373029-01
1 81125U 24561WQ  26070.40847222  .00000000  00000+0  00000-0 0  9998
2 81125  80.0000 336.0000 0000000   0.0000 336.0000 13.16009679    14
CTC2_L_00373029-02
1 81126U 25846OG  26070.40847222  .00000000  00000+0  00000-0 0  9996
2 81126  80.0000 336.0000 0000000   0.0000  66.0000 13.16009679    15
CTC2_L_00373029-03
1 81127U 24706HM  26070.40847222  .00000000  00000+0  00000-0 0  9991
2 81127  80.0000 336.0000 0000000   0.0000 156.0000 13.16009679    16
CTC2_L_00373029-04
1 81128U 26805YC  26070.40847222  .00000000  00000+0  00000-0 0  9994
2 81128  80.0000 336.0000 0000000   0.0000 246.0000 13.16009679    17
CTC2_L_00373030-01
1 81129U 22800YM  26070.40847222  .00000000  00000+0  00000-0 0  9996
2 81129  80.0000 348.0000 0000000   0.0000 348.0000 13.16009679    14
CTC2_L_00373030-02
1 81130U 25214QD  26070.40847222  .00000000  00000+0  00000-0 0  9990
2 81130  80.0000 348.0000 0000000   0.0000  78.0000 13.16009679    16
CTC2_L_00373030-03
1 81131U 23092QI  26070.40847222  .00000000  00000+0  00000-0 0  9993
2 81131  80.0000 348.0000 0000000   0.0000 168.0000 13.16009679    17
CTC2_L_00373030-04
1 81132U 25163WR  26070.40847222  .00000000  00000+0  00000-0 0  9995
2 81132  80.0000 348.0000 0000000   0.0000 258.0000 13.16009679    18
